[{"OBJECT_NAME":"LEMUR-2-KREMPEL-BRO1","OBJECT_ID":"2025-061G","EPOCH":"2026-03-03T23:32:43.571040","MEAN_MOTION":15.13698441,"ECCENTRICITY":0.0017114,"INCLINATION":97.552,"RA_OF_ASC_NODE":39.6297,"ARG_OF_PERICENTER":250.4631,"MEAN_ANOMALY":109.4752,"EPHEMERIS_TYPE":0,"CLASSIFICATION_TYPE":"U","NORAD_CAT_ID":63357,"ELEMENT_SET_NO":999,"REV_AT_EPOCH":5171,"BSTAR":0.00035156,"MEAN_MOTION_DOT":6.285e-5,"MEAN_MOTION_DDOT":0},{"OBJECT_NAME":"LEMUR-2-LANGER2SPACE","OBJECT_ID":"2025-061H","EPOCH":"2026-03-03T23:40:34.090752","MEAN_MOTION":15.13386613,"ECCENTRICITY":0.0015043,"INCLINATION":97.5524,"RA_OF_ASC_NODE":39.4918,"ARG_OF_PERICENTER":260.4093,"MEAN_ANOMALY":99.5439,"EPHEMERIS_TYPE":0,"CLASSIFICATION_TYPE":"U","NORAD_CAT_ID":63358,"ELEMENT_SET_NO":999,"REV_AT_EPOCH":5170,"BSTAR":0.00039031,"MEAN_MOTION_DOT":6.919e-5,"MEAN_MOTION_DDOT":0},{"OBJECT_NAME":"LEMUR-2-BALTO","OBJECT_ID":"2025-052BH","EPOCH":"2026-03-04T03:41:48.640416","MEAN_MOTION":14.98836641,"ECCENTRICITY":0.0003018,"INCLINATION":97.7003,"RA_OF_ASC_NODE":318.0449,"ARG_OF_PERICENTER":15.8404,"MEAN_ANOMALY":344.2912,"EPHEMERIS_TYPE":0,"CLASSIFICATION_TYPE":"U","NORAD_CAT_ID":63395,"ELEMENT_SET_NO":999,"REV_AT_EPOCH":5302,"BSTAR":0.00080456,"MEAN_MOTION_DOT":9.657e-5,"MEAN_MOTION_DDOT":0}]
