LEMUR-2-KREMPEL-BRO1    
1 63357U 25061G   26062.98105985  .00006285  00000+0  35156-3 0  9992
2 63357  97.5520  39.6297 0017114 250.4631 109.4752 15.13698441 51719
LEMUR-2-LANGER2SPACE    
1 63358U 25061H   26062.98650568  .00006919  00000+0  39031-3 0  9995
2 63358  97.5524  39.4918 0015043 260.4093  99.5439 15.13386613 51709
LEMUR-2-BALTO           
1 63395U 25052BH  26063.15403519  .00009657  00000+0  80456-3 0  9997
2 63395  97.7003 318.0449 0003018  15.8404 344.2912 14.98836641 53022
